VIASAT-2                
1 42740U 17029A   26025.13042172 -.00000251  00000+0  00000+0 0  9998
2 42740   0.0293 279.1190 0000201 222.1596 320.2069  1.00271650 31774
EUTELSAT 172B           
1 42741U 17029B   26025.46365699  .00000008  00000+0  00000+0 0  9996
2 42741   0.0271 124.4548 0000146 129.7342 209.4754  1.00270956 32306
GSAT-19                 
1 42747U 17031A   26025.58168972  .00000139  00000+0  00000+0 0  9998
2 42747   0.0466  91.9241 0001891 252.2654  37.9709  1.00272590 31716
ECHOSTAR 21             
1 42749U 17032A   26025.57423635  .00000081  00000+0  00000+0 0  9996
2 42749   1.8098 346.3815 0002576 320.4071  35.0641  1.00272643 31661
BULGARIASAT-1           
1 42801U 17038A   26025.28728932  .00000026  00000+0  00000+0 0  9996
2 42801   0.0098  82.7950 0003026 226.7899 280.3148  1.00274514 31407
HELLAS-SAT 3            
1 42814U 17040A   26025.57995639  .00000166  00000+0  00000+0 0  9990
2 42814   0.0472  40.6618 0004390 295.8527  36.1312  1.00269767 31371
GSAT-17                 
1 42815U 17040B   26025.37672984 -.00000243  00000+0  00000+0 0  9991
2 42815   0.0191  76.9291 0006588 198.9566  77.9068  1.00272117 31358
INTELSAT 35E (IS-35E)   
1 42818U 17041A   26025.42275010 -.00000224  00000+0  00000+0 0  9999
2 42818   0.0168  82.5955 0002128 221.0183 298.8027  1.00272063 31386
COSMOS 2520             
1 42907U 17046A   26025.43826353  .00000151  00000+0  00000+0 0  9994
2 42907   0.0291 104.7615 0000039 304.4268 278.3052  1.00271272 30966
TDRS 13                 
1 42915U 17047A   26025.35592972 -.00000084  00000+0  00000+0 0  9998
2 42915   3.4246 359.0680 0008808 110.8604 131.3925  1.00271433 30915
QZS-3 (MICHIBIKI-3)     
1 42917U 17048A   26025.59737648 -.00000334  00000+0  00000+0 0  9996
2 42917   0.0750 224.2496 0002340  75.5260 167.2149  1.00272943 30821
AMAZONAS 5              
1 42934U 17053A   26025.13215507 -.00000268  00000+0  00000+0 0  9992
2 42934   0.0431 309.9767 0005673   0.3110 160.7260  1.00269967 30611
ASIASAT 9               
1 42942U 17057A   26025.61737069 -.00000346  00000+0  00000+0 0  9997
2 42942   0.0158  65.3034 0002273 235.7593 168.1967  1.00270805 30437
INTELSAT 37E (IS-37E)   
1 42950U 17059A   26025.42595679 -.00000126  00000+0  00000+0 0  9992
2 42950   0.0179  77.7519 0002834 213.4052 328.9157  1.00271908 30634
BSAT-4A                 
1 42951U 17059B   26025.59310953 -.00000336  00000+0  00000+0 0  9994
2 42951   0.0482 310.4039 0004034  52.2700  85.5628  1.00269645 30374
QZS-4 (MICHIBIKI-4)     
1 42965U 17062A   26024.74231766 -.00000300  00000+0  00000+0 0  9994
2 42965  40.1984 345.3192 0750956 269.0112 275.9143  1.00291251 30368
SES-11 (ECHOSTAR 105)   
1 42967U 17063A   26025.55144288 -.00000075  00000+0  00000+0 0  9998
2 42967   0.0271  61.5023 0002630 228.5146 288.3869  1.00270388 30293
KOREASAT 5A             
1 42984U 17067A   26025.62298410 -.00000344  00000+0  00000+0 0  9995
2 42984   0.0138  59.7236 0001143 241.5792 161.0300  1.00272125 30107
ALCOMSAT 1              
1 43039U 17078A   26025.42465678 -.00000172  00000+0  00000+0 0  9998
2 43039   0.0470 200.2072 0002890  89.5861 322.9910  1.00272412 29861
SBIRS GEO-3 (USA 282)   
1 43162U 18009A   26025.54061744  .00000142  00000+0  00000+0 0  9995
2 43162   2.1058   4.9121 0002345 295.2042 219.9405  1.00271445 29419
AL YAH 3                
1 43174U 18012A   26025.42561013 -.00000142  00000+0  00000+0 0  9994
2 43174   1.1817  84.9921 0004152 231.0373 301.8650  1.00269672 29415
SES-14                  
1 43175U 18012B   26025.21364340 -.00000264  00000+0  00000+0 0  9991
2 43175   0.0096  21.2382 0001101 256.2589 236.4372  1.00277164  5599
GOES 17                 
1 43226U 18022A   26025.51294743 -.00000169  00000+0  00000+0 0  9995
2 43226   0.5687  88.4004 0003023 202.6611 288.9028  1.00270776 28990
HISPASAT 30W-6          
1 43228U 18023A   26025.42361678 -.00000202  00000+0  00000+0 0  9998
2 43228   0.0381  42.6480 0004510 284.3660 280.1982  1.00270792 28970
SUPERBIRD-B3            
1 43271U 18033A   26025.53299073 -.00000079  00000+0  00000+0 0  9990
2 43271   0.0082  42.1461 0001256 253.5070 183.0240  1.00271209 28632
HYLAS 4                 
1 43272U 18033B   26025.20808550 -.00000219  00000+0  00000+0 0  9997
2 43272   0.0214 295.5424 0001199  26.6402 203.7220  1.00273503 28634
IRNSS-1I                
1 43286U 18035A   26024.72715090  .00000082  00000+0  00000+0 0  9993
2 43286  29.2495  76.4253 0021488 181.4129 183.0636  1.00274015 28649
USA 283                 
1 43339U 18036A   26023.64712275 -.00000302  00000+0  00000+0 0  9991
2 43339   0.0181 104.9484 0000430 254.2673 130.8121  1.00270598 23845
COSMOS 2526             
1 43432U 18037A   26025.59754981 -.00000330  00000+0  00000+0 0  9993
2 43432   0.0267 116.9825 0000214  76.7069 274.3784  1.00273040 28537
APSTAR-6C               
1 43450U 18041A   26024.31496185 -.00000303  00000+0  00000+0 0  9996
2 43450   0.0652 289.7193 0003448  25.6450  55.6378  1.00270993 28365
BANGABANDHUSAT-1        
1 43463U 18044A   26025.59581647 -.00000348  00000+0  00000+0 0  9991
2 43463   0.0122 111.2442 0002124 198.0955 149.1427  1.00271405 28286
SES-12                  
1 43488U 18049A   26025.58889964 -.00000255  00000+0  00000+0 0  9992
2 43488   0.0172 345.1109 0002507 300.6501 146.1198  1.00270881 27984
FENGYUN 2H              
1 43491U 18050A   26025.58784309 -.00000113  00000+0  00000+0 0  9998
2 43491   2.6613  80.8467 0002421 176.7105 157.9678  1.00267207 28008
BEIDOU-2 IGSO-7         
1 43539U 18057A   26025.30852278 -.00000090  00000+0  00000+0 0  9993
2 43539  55.1890 164.3092 0097780 236.0301 305.7500  1.00294309 27697
TELSTAR 19V             
1 43562U 18059A   26025.55967627 -.00000266  00000+0  00000+0 0  9998
2 43562   0.0272 162.7524 0000560  59.5714  40.9906  1.00269431 27713
TELKOM 4 (MERAH PUTIH)  
1 43587U 18064A   26025.66224053 -.00000330  00000+0  00000+0 0  9994
2 43587   0.0214  88.2550 0001353 241.8914 141.2093  1.00270714 27455
TELSTAR 18V             
1 43611U 18069A   26025.29072593 -.00000280  00000+0  00000+0 0  9990
2 43611   0.0190 306.1807 0002385 357.6131  63.4418  1.00270840 27193
AZERSPACE 2 (IS-38)     
1 43632U 18074A   26025.58116972  .00000151  00000+0  00000+0 0  9997
2 43632   0.0101  43.8487 0001484 254.1290  81.2309  1.00269956 27017
HORIZONS-3E             
1 43633U 18074B   26025.23864359 -.00000017  00000+0  00000+0 0  9991
2 43633   0.0415 235.7335 0000355  91.2150  52.4840  1.00269769 26900
AEHF-4 (USA 288)        
1 43651U 18079A   26025.50183742 -.00000260  00000+0  00000+0 0  9996
2 43651   1.4302 351.4565 0062923 359.3641 247.1190  1.00273487 26861
BEIDOU-3 G1             
1 43683U 18085A   26025.59997649 -.00000265  00000+0  00000+0 0  9991
2 43683   2.7149 101.6069 0001536  61.1989 318.0737  1.00275414 26631
GSAT-29                 
1 43698U 18089A   26025.58316307  .00000099  00000+0  00000+0 0  9990
2 43698   0.0208  90.5779 0003037 204.2542  95.0697  1.00268760 26353
ES'HAIL 2               
1 43700U 18090A   26025.57726970  .00000158  00000+0  00000+0 0  9992
2 43700   0.0160  77.5893 0001966 264.0185  16.8753  1.00269024 26248
GEO-KOMPSAT-2A          
1 43823U 18100A   26025.52631736 -.00000330  00000+0  00000+0 0  9993
2 43823   0.0128 135.5179 0000492 252.9976  54.0297  1.00272001 26197
GSAT-11                 
1 43824U 18100B   26025.58688976 -.00000063  00000+0  00000+0 0  9991
2 43824   0.0871 261.3612 0003142 157.4089 351.3878  1.00271101 26044
GSAT-7A                 
1 43864U 18105A   26025.63318290  .00000041  00000+0  00000+0 0  9990
2 43864   0.0126 107.0321 0002356 186.6735 121.9669  1.00269198 26011
COSMOS 2533             
1 43867U 18107A   26022.68566889 -.00000024  00000+0  00000+0 0  9998
2 43867   0.0259 108.8217 0000611 214.4584 115.5695  1.00272201 25979
TJS-3                   
1 43874U 18110A   26025.65518348  .00000069  00000+0  00000+0 0  9995
2 43874   2.1762  82.2884 0001938 217.9693 119.5261  1.00271217 25986
ZHONGXING-2D            
1 43920U 19001A   26025.59798315 -.00000323  00000+0  00000+0 0  9998
2 43920   0.0590 259.5015 0001590 348.3680 222.2956  1.00273429 52652
HELLAS-SAT 4 & SGS-1    
1 44034U 19007A   26024.82892090  .00000167  00000+0  00000+0 0  9996
2 44034   0.0654 122.6621 0003582  53.2613 285.6156  1.00268173 25930
GSAT-31                 
1 44035U 19007B   26025.07475090  .00000140  00000+0  00000+0 0  9993
2 44035   0.0491 257.0183 0006062  19.3111 282.8487  1.00273801 25534
NUSANTARA SATU          
1 44048U 19009A   26024.98239252 -.00000220  00000+0  00000+0 0  9996
2 44048   0.0237 134.6916 0000816  27.9748 101.2902  1.00270388 25333
ZHONGXING-6C            
1 44067U 19012A   26025.59806981 -.00000321  00000+0  00000+0 0  9990
2 44067   0.0225   7.9248 0006269  22.4112  80.2917  1.00270191 25316
WGS 10 (USA 291)        
1 44071U 19014A   26025.51279729  .00000061  00000+0  00000+0 0  9993
2 44071   0.0171  66.2695 0000627  19.5613 283.9065  1.00270181 25180
TIANLIAN 2-01           
1 44076U 19017A   26025.58749642 -.00000092  00000+0  00000+0 0  9999
2 44076   0.1699  80.1893 0004021 198.9428 134.2620  1.00271105 25210
ARABSAT-6A              
1 44186U 19021A   26025.29292268  .00000168  00000+0  00000+0 0  9994
2 44186   0.0391   6.0474 0005840 288.4459 326.0217  1.00271798 24727
BEIDOU-2 G8             
1 44231U 19027A   26025.60084316 -.00000234  00000+0  00000+0 0  9994
2 44231   1.7702  74.8019 0008871 261.6930 149.2369  1.00272535 24659
YAMAL 601               
1 44307U 19031A   26025.01134104  .00000134  00000+0  00000+0 0  9997
2 44307   0.0169  87.9684 0002508 213.0919 236.3367  1.00272967 24480
AT&T T-16               
1 44333U 19034A   26025.55222289 -.00000100  00000+0  00000+0 0  9994
2 44333   0.0192  83.3151 0001340  90.0656  49.4008  1.00265472 24206
